NORAD_CAT_ID,OBJECT_NAME,OBJECT_TYPE,EPOCH,MEAN_MOTION,ECCENTRICITY,INCLINATION,RA_OF_ASC_NODE,ARG_OF_PERICENTER,MEAN_ANOMALY,BSTAR,MEAN_MOTION_DOT,MEAN_MOTION_DDOT,TLE_LINE0,TLE_LINE1,TLE_LINE2,SEMIMAJOR_AXIS,PERIOD,APOGEE,PERIGEE,DECAYED
54797.0,STARLINK-5435,PAYLOAD,2023-08-27 04:47:32,15.08845312,0.0001301,53.2155,238.6511,92.9584,267.1557,8.1771e-05,1.014e-05,0.0,0 STARLINK-5435,1 54797U 22175AR  23239.19967819  .00001014  00000-0  81771-4 0  9992,2 54797  53.2155 238.6511 0001301  92.9584 267.1557 15.08845312 40209,6917.864,95.437,540.629,538.829,0.0
54797.0,STARLINK-5435,PAYLOAD,2023-08-27 09:33:41,15.08847375,0.0001309,53.2155,237.759,91.9271,268.1871,9.6821e-05,1.254e-05,0.0,0 STARLINK-5435,1 54797U 22175AR  23239.39839585  .00001254  00000-0  96821-4 0  9990,2 54797  53.2155 237.7590 0001309  91.9271 268.1871 15.08847375 40230,6917.858,95.437,540.628,538.817,0.0
54797.0,STARLINK-5435,PAYLOAD,2023-08-28 06:13:42,15.08839954,0.0001312,53.2155,233.8929,95.1646,264.9496,6.5694e-05,7.58e-06,0.0,0 STARLINK-5435,1 54797U 22175AR  23240.25952104  .00000758  00000-0  65694-4 0  9992,2 54797  53.2155 233.8929 0001312  95.1646 264.9496 15.08839954 38204,6917.881,95.438,540.653,538.838,0.0
54797.0,STARLINK-5435,PAYLOAD,2023-08-28 10:59:51,15.08843309,0.0001332,53.2155,233.0009,93.8725,266.242,9.2542e-05,1.185e-05,0.0,0 STARLINK-5435,1 54797U 22175AR  23240.45823805  .00001185  00000-0  92542-4 0  9996,2 54797  53.2155 233.0009 0001332  93.8725 266.2420 15.08843309 40394,6917.87,95.437,540.657,538.814,0.0
54797.0,STARLINK-5435,PAYLOAD,2023-08-29 01:18:20,15.08835778,0.0001397,53.2155,230.3251,93.292,266.8232,-2.791e-05,-7.32e-06,0.0,0 STARLINK-5435,1 54797U 22175AR  23241.05440672 -.00000732  00000-0 -27910-4 0  9996,2 54797  53.2155 230.3251 0001397  93.2920 266.8232 15.08835778 38323,6917.893,95.438,540.725,538.792,0.0
54797.0,STARLINK-5435,PAYLOAD,2023-08-29 09:15:16,15.08840998,0.000138,53.2155,228.8391,88.835,271.28,1.2007e-05,-9.7e-07,0.0,0 STARLINK-5435,1 54797U 22175AR  23241.38560257 -.00000097  00000-0  12007-4 0  9998,2 54797  53.2155 228.8391 0001380  88.8350 271.2800 15.08840998 38375,6917.877,95.437,540.697,538.788,0.0
54797.0,STARLINK-5435,PAYLOAD,2023-08-29 23:33:44,15.08835066,0.0001363,53.2156,226.1629,90.8909,269.2239,4.3814e-06,-2.18e-06,0.0,0 STARLINK-5435,1 54797U 22175AR  23241.98176799 -.00000218  00000-0  43814-5 0  9994,2 54797  53.2156 226.1629 0001363  90.8909 269.2239 15.08835066 38468,6917.895,95.438,540.703,538.818,0.0
54797.0,STARLINK-5435,PAYLOAD,2023-08-30 15:27:36,15.08833558,0.0001325,53.2159,223.1887,93.034,267.0804,-2.7777e-05,-7.3e-06,0.0,0 STARLINK-5435,1 54797U 22175AR  23242.64416992 -.00000730  00000-0 -27777-4 0  9999,2 54797  53.2159 223.1887 0001325  93.0340 267.0804 15.08833558 40726,6917.9,95.438,540.682,538.848,0.0
54797.0,STARLINK-5435,PAYLOAD,2023-08-31 00:59:55,15.08831949,0.0001112,53.2165,221.4049,94.9135,265.1984,2.5118e-05,1.12e-06,0.0,0 STARLINK-5435,1 54797U 22175AR  23243.04161114  .00000112  00000-0  25118-4 0  9996,2 54797  53.2165 221.4049 0001112  94.9135 265.1984 15.08831949 38626,6917.905,95.438,540.539,539.001,0.0
54797.0,STARLINK-5435,PAYLOAD,2023-08-31 07:21:27,15.08839713,0.0001348,53.2156,220.215,93.197,266.9177,8.0962e-05,1.001e-05,0.0,0 STARLINK-5435,1 54797U 22175AR  23243.30656591  .00001001  00000-0  80962-4 0  9999,2 54797  53.2156 220.2150 0001348  93.1970 266.9177 15.08839713 38669,6917.881,95.438,540.679,538.814,0.0
54797.0,STARLINK-5435,PAYLOAD,2023-09-01 10:23:01,15.0883784,0.0001316,53.2157,215.1599,92.2267,267.8875,3.6248e-05,2.89e-06,0.0,0 STARLINK-5435,1 54797U 22175AR  23244.43265191  .00000289  00000-0  36248-4 0  9991,2 54797  53.2157 215.1599 0001316  92.2267 267.8875 15.08837840 40997,6917.887,95.438,540.662,538.842,0.0
54797.0,STARLINK-5435,PAYLOAD,2023-09-01 15:09:10,15.08829605,0.000135,53.2156,214.2681,93.9043,266.2104,0.00017462,2.491e-05,0.0,0 STARLINK-5435,1 54797U 22175AR  23244.63137489  .00002491  00000-0  17462-3 0  9994,2 54797  53.2156 214.2681 0001350  93.9043 266.2104 15.08829605 38867,6917.912,95.438,540.711,538.843,0.0
54797.0,STARLINK-5435,PAYLOAD,2023-09-01 21:30:43,15.08837402,0.0001296,53.216,213.0775,89.3634,270.7506,9.818e-05,1.275e-05,0.0,0 STARLINK-5435,1 54797U 22175AR  23244.89633123  .00001275  00000-0  98180-4 0  9994,2 54797  53.2160 213.0775 0001296  89.3634 270.7506 15.08837402 41063,6917.888,95.438,540.65,538.857,0.0
54797.0,STARLINK-5435,PAYLOAD,2023-09-02 07:03:01,15.08848781,0.0001312,53.2158,211.2932,89.5493,270.5649,0.00010606,1.401e-05,0.0,0 STARLINK-5435,1 54797U 22175AR  23245.29376320  .00001401  00000-0  10606-3 0  9999,2 54797  53.2158 211.2932 0001312  89.5493 270.5649 15.08848781 38962,6917.854,95.437,540.626,538.811,0.0
54797.0,STARLINK-5435,PAYLOAD,2023-09-02 10:13:47,15.08851594,0.0001312,53.2158,210.6984,89.2229,270.8913,0.00012703,1.735e-05,0.0,0 STARLINK-5435,1 54797U 22175AR  23245.42624015  .00001735  00000-0  12703-3 0  9991,2 54797  53.2158 210.6984 0001312  89.2229 270.8913 15.08851594 41143,6917.845,95.437,540.618,538.802,0.0
54797.0,STARLINK-5435,PAYLOAD,2023-09-02 14:59:58,15.08828098,0.0001484,53.2164,209.806,90.5302,269.586,-3.3872e-06,-3.42e-06,0.0,0 STARLINK-5435,1 54797U 22175AR  23245.62497968 -.00000342  00000-0 -33872-5 0  9995,2 54797  53.2164 209.8060 0001484  90.5302 269.5860 15.08828098 39014,6917.917,95.438,540.808,538.755,0.0
54797.0,STARLINK-5435,PAYLOAD,2023-09-03 06:53:48,15.0884568,0.000156,53.2154,206.832,90.9028,269.2143,0.00010802,1.432e-05,0.0,0 STARLINK-5435,1 54797U 22175AR  23246.28736906  .00001432  00000-0  10802-3 0  9991,2 54797  53.2154 206.8320 0001560  90.9028 269.2143 15.08845680 39111,6917.863,95.437,540.807,538.649,0.0
54797.0,STARLINK-5435,PAYLOAD,2023-09-03 14:50:44,15.08837643,0.0001511,53.2172,205.3451,89.3661,270.7505,4.5989e-05,4.44e-06,0.0,0 STARLINK-5435,1 54797U 22175AR  23246.61857585  .00000444  00000-0  45989-4 0  9992,2 54797  53.2172 205.3451 0001511  89.3661 270.7505 15.08837643 39165,6917.888,95.438,540.798,538.707,0.0
54797.0,STARLINK-5435,PAYLOAD,2023-09-04 06:44:36,15.08842687,0.0001339,53.2157,202.371,99.8517,260.2627,-1.6651e-05,-5.53e-06,0.0,0 STARLINK-5435,1 54797U 22175AR  23247.28097410 -.00000553  00000-0 -16651-4 0  9996,2 54797  53.2157 202.3710 0001339  99.8517 260.2627 15.08842687 41422,6917.872,95.437,540.663,538.811,0.0
54797.0,STARLINK-5435,PAYLOAD,2023-09-05 03:24:36,15.08841291,0.0001528,53.2161,198.5062,90.4549,269.6618,0.00012861,1.76e-05,0.0,0 STARLINK-5435,1 54797U 22175AR  23248.14209370  .00001760  00000-0  12861-3 0  9999,2 54797  53.2161 198.5062 0001528  90.4549 269.6618 15.08841291 39391,6917.876,95.437,540.798,538.684,0.0
54797.0,STARLINK-5435,PAYLOAD,2023-09-06 20:44:38,15.08843581,0.0001641,53.2172,190.775,89.1749,270.9432,6.6969e-05,7.78e-06,0.0,0 STARLINK-5435,1 54797U 22175AR  23249.86433536  .00000778  00000-0  66969-4 0  9999,2 54797  53.2172 190.7750 0001641  89.1749 270.9432 15.08843581 41817,6917.869,95.437,540.87,538.599,0.0
54797.0,STARLINK-5435,PAYLOAD,2023-09-06 23:55:24,15.0884425,0.0001574,53.2168,190.1812,96.597,263.5201,7.7537e-05,9.46e-06,0.0,0 STARLINK-5435,1 54797U 22175AR  23249.99681392  .00000946  00000-0  77537-4 0  9998,2 54797  53.2168 190.1812 0001574  96.5970 263.5201 15.08844250 39675,6917.867,95.437,540.821,538.644,0.0
54797.0,STARLINK-5435,PAYLOAD,2023-09-07 19:00:02,15.0882352,0.000104,53.22,186.6187,49.2335,310.8748,0.00025742,3.81e-05,0.0,0 STARLINK-5435,1 54797U 22175AR  23250.79169038  .00003810  00000-0  25742-3 0  9999,2 54797  53.2200 186.6187 0001040  49.2335 310.8748 15.08823520 41958,6917.931,95.439,540.515,539.076,0.0
54797.0,STARLINK-5435,PAYLOAD,2023-09-08 02:56:58,15.08836386,0.000127,53.2155,185.1252,93.5153,266.5984,3.7565e-05,3.1e-06,0.0,0 STARLINK-5435,1 54797U 22175AR  23251.12289975  .00000310  00000-0  37565-4 0  9999,2 54797  53.2155 185.1252 0001270  93.5153 266.5984 15.08836386 39847,6917.891,95.438,540.635,538.878,0.0
54797.0,STARLINK-5435,PAYLOAD,2023-09-08 06:07:44,15.08841763,0.0001363,53.216,184.5295,97.2577,262.857,5.9842e-05,6.65e-06,0.0,0 STARLINK-5435,1 54797U 22175AR  23251.25537647  .00000665  00000-0  59842-4 0  9990,2 54797  53.2160 184.5295 0001363  97.2577 262.8570 15.08841763 42026,6917.875,95.437,540.683,538.797,0.0
54797.0,STARLINK-5435,PAYLOAD,2023-09-09 04:23:08,15.0884086,0.0001414,53.2176,180.3674,104.9887,255.1262,0.00010619,1.403e-05,0.0,0 STARLINK-5435,1 54797U 22175AR  23252.18273674  .00001403  00000-0  10619-3 0  9999,2 54797  53.2176 180.3674 0001414 104.9887 255.1262 15.08840860 40001,6917.878,95.438,540.721,538.765,0.0
54797.0,STARLINK-5435,PAYLOAD,2023-09-09 12:20:04,15.08841164,0.0001467,53.2174,178.8799,85.3086,274.8073,0.00010437,1.374e-05,0.0,0 STARLINK-5435,1 54797U 22175AR  23252.51393862  .00001374  00000-0  10437-3 0  9993,2 54797  53.2174 178.8799 0001467  85.3086 274.8073 15.08841164 42211,6917.877,95.437,540.757,538.727,0.0
54797.0,STARLINK-5435,PAYLOAD,2023-09-10 04:13:55,15.08846201,0.0001522,53.2175,175.905,92.4231,267.6935,0.00014255,1.982e-05,0.0,0 STARLINK-5435,1 54797U 22175AR  23253.17633488  .00001982  00000-0  14255-3 0  9994,2 54797  53.2175 175.9050 0001522  92.4231 267.6935 15.08846201 42318,6917.861,95.437,540.779,538.674,0.0
54797.0,STARLINK-5435,PAYLOAD,2023-09-11 00:53:56,15.08839484,0.0001535,53.2175,172.0404,90.4142,269.7027,1.2458e-05,-9e-07,0.0,0 STARLINK-5435,1 54797U 22175AR  23254.03746404 -.00000090  00000-0  12458-4 0  9997,2 54797  53.2175 172.0404 0001535  90.4142 269.7027 15.08839484 40286,6917.882,95.438,540.809,538.685,0.0
54797.0,STARLINK-5435,PAYLOAD,2023-09-11 12:01:38,15.08841791,0.0001481,53.2174,169.9597,88.3621,271.754,2.3808e-05,9.1e-07,0.0,0 STARLINK-5435,1 54797U 22175AR  23254.50114244  .00000091  00000-0  23808-4 0  9991,2 54797  53.2174 169.9597 0001481  88.3621 271.7540 15.08841791 42516,6917.875,95.437,540.764,538.715,0.0
